GLOBALSTAR M094         
1 39074U 13005C   23228.25063112 -.00000092  00000+0  66087-4 0  9991
2 39074  51.9960  64.9220 0000618  78.7384 281.3552 12.62266925487668
GLOBALSTAR M096         
1 39075U 13005D   23228.65960248 -.00000083  00000+0  11727-3 0  9992
2 39075  52.0067 111.6671 0000343  71.6488 288.4416 12.62267907486961
GLOBALSTAR M078         
1 39076U 13005E   23228.63299114 -.00000124  00000+0 -11139-3 0  9992
2 39076  51.9846 197.1674 0001110 123.9322 236.1650 12.62269534485448
GLOBALSTAR M095         
1 39077U 13005F   23229.21417215 -.00000122  00000+0 -10121-3 0  9990
2 39077  51.9777 192.9304 0000573 155.0351 205.0544 12.62267994485529
GLOBALSTAR M087         
1 52888U 22064A   23228.34021180 -.00000133  00000+0 -89903-5 0  9993
2 52888  51.9737 194.8340 0009297 310.2866  49.7221 13.37550654 56596
